[{"OBJECT_NAME":"IRIDIUM 151","OBJECT_ID":"2017-083E","EPOCH":"2026-03-04T18:49:15.094272","MEAN_MOTION":14.34218457,"ECCENTRICITY":0.0002128,"INCLINATION":86.4014,"RA_OF_ASC_NODE":5.684,"ARG_OF_PERICENTER":86.3193,"MEAN_ANOMALY":273.8246,"EPHEMERIS_TYPE":0,"CLASSIFICATION_TYPE":"U","NORAD_CAT_ID":43074,"ELEMENT_SET_NO":999,"REV_AT_EPOCH":42917,"BSTAR":2.9042e-5,"MEAN_MOTION_DOT":1.01e-6,"MEAN_MOTION_DDOT":0},{"OBJECT_NAME":"IRIDIUM 134","OBJECT_ID":"2017-083F","EPOCH":"2026-03-04T08:00:47.067840","MEAN_MOTION":14.34218389,"ECCENTRICITY":0.00019814,"INCLINATION":86.4021,"RA_OF_ASC_NODE":5.8787,"ARG_OF_PERICENTER":85.3379,"MEAN_ANOMALY":274.8043,"EPHEMERIS_TYPE":0,"CLASSIFICATION_TYPE":"U","NORAD_CAT_ID":43075,"ELEMENT_SET_NO":999,"REV_AT_EPOCH":42907,"BSTAR":2.732942e-5,"MEAN_MOTION_DOT":9.6e-7,"MEAN_MOTION_DDOT":0},{"OBJECT_NAME":"IRIDIUM 137","OBJECT_ID":"2017-083G","EPOCH":"2026-03-04T18:21:51.195168","MEAN_MOTION":14.34217463,"ECCENTRICITY":0.0002227,"INCLINATION":86.4015,"RA_OF_ASC_NODE":5.7895,"ARG_OF_PERICENTER":97.0197,"MEAN_ANOMALY":263.1252,"EPHEMERIS_TYPE":0,"CLASSIFICATION_TYPE":"U","NORAD_CAT_ID":43076,"ELEMENT_SET_NO":999,"REV_AT_EPOCH":42920,"BSTAR":-1.3706e-5,"MEAN_MOTION_DOT":-1.9e-7,"MEAN_MOTION_DDOT":0},{"OBJECT_NAME":"IRIDIUM 141","OBJECT_ID":"2017-083H","EPOCH":"2026-03-04T08:09:56.042208","MEAN_MOTION":14.34221216,"ECCENTRICITY":0.00022312,"INCLINATION":86.4016,"RA_OF_ASC_NODE":5.8033,"ARG_OF_PERICENTER":82.9066,"MEAN_ANOMALY":277.2383,"EPHEMERIS_TYPE":0,"CLASSIFICATION_TYPE":"U","NORAD_CAT_ID":43077,"ELEMENT_SET_NO":999,"REV_AT_EPOCH":42914,"BSTAR":0.00014313599,"MEAN_MOTION_DOT":4.21e-6,"MEAN_MOTION_DDOT":0},{"OBJECT_NAME":"IRIDIUM 153","OBJECT_ID":"2017-083J","EPOCH":"2026-03-04T07:01:03.348768","MEAN_MOTION":14.3421844,"ECCENTRICITY":0.00021432,"INCLINATION":86.4017,"RA_OF_ASC_NODE":334.3372,"ARG_OF_PERICENTER":78.2597,"MEAN_ANOMALY":281.884,"EPHEMERIS_TYPE":0,"CLASSIFICATION_TYPE":"U","NORAD_CAT_ID":43078,"ELEMENT_SET_NO":999,"REV_AT_EPOCH":43024,"BSTAR":3.3033335e-5,"MEAN_MOTION_DOT":1.12e-6,"MEAN_MOTION_DDOT":0},{"OBJECT_NAME":"IRIDIUM 131","OBJECT_ID":"2017-083K","EPOCH":"2026-03-04T19:34:55.189056","MEAN_MOTION":14.34218056,"ECCENTRICITY":0.0002315,"INCLINATION":86.4022,"RA_OF_ASC_NODE":5.7837,"ARG_OF_PERICENTER":85.0071,"MEAN_ANOMALY":275.1389,"EPHEMERIS_TYPE":0,"CLASSIFICATION_TYPE":"U","NORAD_CAT_ID":43079,"ELEMENT_SET_NO":999,"REV_AT_EPOCH":42914,"BSTAR":0.00013691,"MEAN_MOTION_DOT":4.03e-6,"MEAN_MOTION_DDOT":0},{"OBJECT_NAME":"IRIDIUM 144","OBJECT_ID":"2018-030A","EPOCH":"2026-03-04T05:29:43.431360","MEAN_MOTION":14.34217605,"ECCENTRICITY":0.00020356,"INCLINATION":86.4015,"RA_OF_ASC_NODE":334.2952,"ARG_OF_PERICENTER":87.0636,"MEAN_ANOMALY":273.0792,"EPHEMERIS_TYPE":0,"CLASSIFICATION_TYPE":"U","NORAD_CAT_ID":43249,"ELEMENT_SET_NO":999,"REV_AT_EPOCH":41509,"BSTAR":3.492104e-6,"MEAN_MOTION_DOT":3.0e-7,"MEAN_MOTION_DDOT":0},{"OBJECT_NAME":"IRIDIUM 149","OBJECT_ID":"2018-030B","EPOCH":"2026-03-04T05:38:51.372384","MEAN_MOTION":14.34218458,"ECCENTRICITY":0.00020977,"INCLINATION":86.4014,"RA_OF_ASC_NODE":334.2607,"ARG_OF_PERICENTER":82.1163,"MEAN_ANOMALY":278.0271,"EPHEMERIS_TYPE":0,"CLASSIFICATION_TYPE":"U","NORAD_CAT_ID":43250,"ELEMENT_SET_NO":999,"REV_AT_EPOCH":41511,"BSTAR":5.113602e-5,"MEAN_MOTION_DOT":1.63e-6,"MEAN_MOTION_DDOT":0},{"OBJECT_NAME":"IRIDIUM 157","OBJECT_ID":"2018-030C","EPOCH":"2026-03-04T06:06:15.410592","MEAN_MOTION":14.34217941,"ECCENTRICITY":0.00021499,"INCLINATION":86.4014,"RA_OF_ASC_NODE":334.3037,"ARG_OF_PERICENTER":85.3025,"MEAN_ANOMALY":274.8416,"EPHEMERIS_TYPE":0,"CLASSIFICATION_TYPE":"U","NORAD_CAT_ID":43251,"ELEMENT_SET_NO":999,"REV_AT_EPOCH":41509,"BSTAR":2.0393122e-5,"MEAN_MOTION_DOT":7.7e-7,"MEAN_MOTION_DDOT":0},{"OBJECT_NAME":"IRIDIUM 140","OBJECT_ID":"2018-030D","EPOCH":"2026-03-04T06:33:39.409920","MEAN_MOTION":14.34217496,"ECCENTRICITY":0.00019421,"INCLINATION":86.4011,"RA_OF_ASC_NODE":334.3085,"ARG_OF_PERICENTER":83.4818,"MEAN_ANOMALY":276.6599,"EPHEMERIS_TYPE":0,"CLASSIFICATION_TYPE":"U","NORAD_CAT_ID":43252,"ELEMENT_SET_NO":999,"REV_AT_EPOCH":41515,"BSTAR":-9.936153e-6,"MEAN_MOTION_DOT":-8.0e-8,"MEAN_MOTION_DDOT":0},{"OBJECT_NAME":"IRIDIUM 145","OBJECT_ID":"2018-030E","EPOCH":"2026-03-04T06:15:23.201280","MEAN_MOTION":14.3421943,"ECCENTRICITY":0.0001882,"INCLINATION":86.4019,"RA_OF_ASC_NODE":334.2864,"ARG_OF_PERICENTER":92.7355,"MEAN_ANOMALY":267.4056,"EPHEMERIS_TYPE":0,"CLASSIFICATION_TYPE":"U","NORAD_CAT_ID":43253,"ELEMENT_SET_NO":999,"REV_AT_EPOCH":41508,"BSTAR":0.00010111894,"MEAN_MOTION_DOT":3.03e-6,"MEAN_MOTION_DDOT":0},{"OBJECT_NAME":"IRIDIUM 146","OBJECT_ID":"2018-030F","EPOCH":"2026-03-04T05:47:59.248608","MEAN_MOTION":14.3421984,"ECCENTRICITY":0.00020792,"INCLINATION":86.4015,"RA_OF_ASC_NODE":334.3068,"ARG_OF_PERICENTER":88.7281,"MEAN_ANOMALY":271.4153,"EPHEMERIS_TYPE":0,"CLASSIFICATION_TYPE":"U","NORAD_CAT_ID":43254,"ELEMENT_SET_NO":999,"REV_AT_EPOCH":41509,"BSTAR":0.00012574802,"MEAN_MOTION_DOT":3.72e-6,"MEAN_MOTION_DDOT":0},{"OBJECT_NAME":"IRIDIUM 148","OBJECT_ID":"2018-030G","EPOCH":"2026-03-04T06:42:47.420064","MEAN_MOTION":14.34217714,"ECCENTRICITY":0.0002174,"INCLINATION":86.4018,"RA_OF_ASC_NODE":334.3326,"ARG_OF_PERICENTER":85.8918,"MEAN_ANOMALY":274.2526,"EPHEMERIS_TYPE":0,"CLASSIFICATION_TYPE":"U","NORAD_CAT_ID":43255,"ELEMENT_SET_NO":999,"REV_AT_EPOCH":41513,"BSTAR":8.8865364e-5,"MEAN_MOTION_DOT":2.69e-6,"MEAN_MOTION_DDOT":0},{"OBJECT_NAME":"IRIDIUM 142","OBJECT_ID":"2018-030H","EPOCH":"2026-03-04T05:57:07.376256","MEAN_MOTION":14.34217675,"ECCENTRICITY":0.00019354,"INCLINATION":86.4014,"RA_OF_ASC_NODE":334.2387,"ARG_OF_PERICENTER":92.0717,"MEAN_ANOMALY":268.0701,"EPHEMERIS_TYPE":0,"CLASSIFICATION_TYPE":"U","NORAD_CAT_ID":43256,"ELEMENT_SET_NO":999,"REV_AT_EPOCH":41509,"BSTAR":-2.590888e-6,"MEAN_MOTION_DOT":1.3e-7,"MEAN_MOTION_DDOT":0},{"OBJECT_NAME":"IRIDIUM 150","OBJECT_ID":"2018-030J","EPOCH":"2026-03-04T06:51:55.322208","MEAN_MOTION":14.34217726,"ECCENTRICITY":0.00020584,"INCLINATION":86.4018,"RA_OF_ASC_NODE":334.3356,"ARG_OF_PERICENTER":85.6833,"MEAN_ANOMALY":274.4598,"EPHEMERIS_TYPE":0,"CLASSIFICATION_TYPE":"U","NORAD_CAT_ID":43257,"ELEMENT_SET_NO":999,"REV_AT_EPOCH":41512,"BSTAR":5.6452929e-5,"MEAN_MOTION_DOT":1.78e-6,"MEAN_MOTION_DDOT":0},{"OBJECT_NAME":"IRIDIUM 143","OBJECT_ID":"2018-030K","EPOCH":"2026-03-04T18:07:47.393760","MEAN_MOTION":14.34217727,"ECCENTRICITY":0.0001994,"INCLINATION":86.4015,"RA_OF_ASC_NODE":334.2279,"ARG_OF_PERICENTER":89.5235,"MEAN_ANOMALY":270.6189,"EPHEMERIS_TYPE":0,"CLASSIFICATION_TYPE":"U","NORAD_CAT_ID":43258,"ELEMENT_SET_NO":999,"REV_AT_EPOCH":41512,"BSTAR":-1.2559e-7,"MEAN_MOTION_DOT":1.9e-7,"MEAN_MOTION_DDOT":0},{"OBJECT_NAME":"IRIDIUM 161","OBJECT_ID":"2018-047C","EPOCH":"2026-03-04T06:30:51.946848","MEAN_MOTION":14.43283856,"ECCENTRICITY":0.0002541,"INCLINATION":86.451,"RA_OF_ASC_NODE":132.3468,"ARG_OF_PERICENTER":92.3271,"MEAN_ANOMALY":267.8221,"EPHEMERIS_TYPE":0,"CLASSIFICATION_TYPE":"U","NORAD_CAT_ID":43478,"ELEMENT_SET_NO":999,"REV_AT_EPOCH":41000,"BSTAR":0.00013217672,"MEAN_MOTION_DOT":4.65e-6,"MEAN_MOTION_DDOT":0}]
