IRIDIUM 151             
1 43074U 17083E   26063.78420248  .00000101  00000+0  29042-4 0  9991
2 43074  86.4014   5.6840 0002128  86.3193 273.8246 14.34218457429173
IRIDIUM 134             
1 43075U 17083F   26063.33387810  .00000096  00000+0  27329-4 0  9999
2 43075  86.4021   5.8787 0001981  85.3379 274.8043 14.34218389429074
IRIDIUM 137             
1 43076U 17083G   26063.76517587 -.00000019  00000+0 -13706-4 0  9994
2 43076  86.4015   5.7895 0002227  97.0197 263.1252 14.34217463429209
IRIDIUM 141             
1 43077U 17083H   26063.34023197  .00000421  00000+0  14314-3 0  9998
2 43077  86.4016   5.8033 0002231  82.9066 277.2383 14.34221216429144
IRIDIUM 153             
1 43078U 17083J   26063.29239987  .00000112  00000+0  33033-4 0  9996
2 43078  86.4017 334.3372 0002143  78.2597 281.8840 14.34218440430248
IRIDIUM 131             
1 43079U 17083K   26063.81591654  .00000403  00000+0  13691-3 0  9997
2 43079  86.4022   5.7837 0002315  85.0071 275.1389 14.34218056429148
IRIDIUM 144             
1 43249U 18030A   26063.22897490  .00000030  00000+0  34921-5 0  9998
2 43249  86.4015 334.2952 0002035  87.0636 273.0792 14.34217605415098
IRIDIUM 149             
1 43250U 18030B   26063.23531681  .00000163  00000+0  51136-4 0  9991
2 43250  86.4014 334.2607 0002097  82.1163 278.0271 14.34218458415112
IRIDIUM 157             
1 43251U 18030C   26063.25434503  .00000077  00000+0  20393-4 0  9994
2 43251  86.4014 334.3037 0002149  85.3025 274.8416 14.34217941415099
IRIDIUM 140             
1 43252U 18030D   26063.27337280 -.00000008  00000+0 -99362-5 0  9990
2 43252  86.4011 334.3085 0001942  83.4818 276.6599 14.34217496415153
IRIDIUM 145             
1 43253U 18030E   26063.26068520  .00000303  00000+0  10112-3 0  9998
2 43253  86.4019 334.2864 0001882  92.7355 267.4056 14.34219430415086
IRIDIUM 146             
1 43254U 18030F   26063.24165797  .00000372  00000+0  12575-3 0  9992
2 43254  86.4015 334.3068 0002079  88.7281 271.4153 14.34219840415091
IRIDIUM 148             
1 43255U 18030G   26063.27971551  .00000269  00000+0  88865-4 0  9990
2 43255  86.4018 334.3326 0002174  85.8918 274.2526 14.34217714415131
IRIDIUM 142             
1 43256U 18030H   26063.24800204  .00000013  00000+0 -25909-5 0  9993
2 43256  86.4014 334.2387 0001935  92.0717 268.0701 14.34217675415092
IRIDIUM 150             
1 43257U 18030J   26063.28605697  .00000178  00000+0  56453-4 0  9995
2 43257  86.4018 334.3356 0002058  85.6833 274.4598 14.34217726415124
IRIDIUM 143             
1 43258U 18030K   26063.75540965  .00000019  00000+0 -12559-6 0  9990
2 43258  86.4015 334.2279 0001994  89.5235 270.6189 14.34217727415127
IRIDIUM 161             
1 43478U 18047C   26063.27143457  .00000465  00000+0  13218-3 0  9998
2 43478  86.4510 132.3468 0002541  92.3271 267.8221 14.43283856410002
